FLOCK 4G-8              
1 62613U 25009E   26068.72381419  .00013559  00000+0  50438-3 0  9996
2 62613  97.4045 151.2834 0003050 315.2538  44.8455 15.27623414 63721
STARLINK-34260          
1 64334U 25124T   26068.53166186  .00026388  00000+0  96485-3 0  9993
2 64334  43.0023 122.8303 0002053 261.3098  98.7521 15.27585172 41754
